STARLINK-2114
1 47393U 21005AW  26092.83335647  .00285691  00000+0  21020-2 0  9999
2 47393  53.0419 224.7610 0005312 334.5238 245.8006 15.71674095  5949
